{
  "norad_id": 59529,
  "name": "STARLINK-31513",
  "history": [
    {
      "epoch": "2026-05-02T02:48:15.133248Z",
      "apogee_km": 484.2130771814527,
      "perigee_km": 481.86929871244956,
      "latitude_deg": 4.210390381194019e-05,
      "longitude_deg": 110.94259746916218,
      "height_km": 482.63296369836627,
      "semi_major_axis_km": 6861.178187946951,
      "eccentricity": 0.0001708,
      "inclination_deg": 43.0047,
      "raan_deg": 13.0451,
      "arg_perigee_deg": 279.1178,
      "mean_anomaly_deg": 80.9481,
      "mean_motion_rev_day": 15.27582641
    },
    {
      "epoch": "2026-05-03T16:28:01.089408Z",
      "apogee_km": 483.974378558858,
      "perigee_km": 482.1534158407412,
      "latitude_deg": 8.896600834588275e-06,
      "longitude_deg": -104.40648079264588,
      "height_km": 482.6238770253638,
      "semi_major_axis_km": 6861.200897199799,
      "eccentricity": 0.0001327,
      "inclination_deg": 43.0007,
      "raan_deg": 4.1843,
      "arg_perigee_deg": 283.7713,
      "mean_anomaly_deg": 76.2991,
      "mean_motion_rev_day": 15.27575057
    },
    {
      "epoch": "2026-05-04T16:00:23.635008Z",
      "apogee_km": 484.28475116248865,
      "perigee_km": 482.01366542754204,
      "latitude_deg": -5.1714041410958e-06,
      "longitude_deg": -104.00577597872737,
      "height_km": 482.61563157908057,
      "semi_major_axis_km": 6861.286208295015,
      "eccentricity": 0.0001655,
      "inclination_deg": 42.9988,
      "raan_deg": 358.6457,
      "arg_perigee_deg": 285.861,
      "mean_anomaly_deg": 74.2059,
      "mean_motion_rev_day": 15.27546567
    },
    {
      "epoch": "2026-05-05T15:32:43.793376Z",
      "apogee_km": 484.1038690657688,
      "perigee_km": 481.9988564760697,
      "latitude_deg": -6.278453779824419e-06,
      "longitude_deg": -103.59268366941309,
      "height_km": 482.54904855108686,
      "semi_major_axis_km": 6861.1883627709185,
      "eccentricity": 0.0001534,
      "inclination_deg": 43.0019,
      "raan_deg": 353.1095,
      "arg_perigee_deg": 285.3906,
      "mean_anomaly_deg": 74.6776,
      "mean_motion_rev_day": 15.27579243
    },
    {
      "epoch": "2026-05-06T15:05:05.532000Z",
      "apogee_km": 484.3885545809817,
      "perigee_km": 481.7881501724314,
      "latitude_deg": 2.4314781319614047e-06,
      "longitude_deg": -103.19178338755044,
      "height_km": 482.77831347477303,
      "semi_major_axis_km": 6861.225352376706,
      "eccentricity": 0.0001895,
      "inclination_deg": 43.0031,
      "raan_deg": 347.5677,
      "arg_perigee_deg": 273.8583,
      "mean_anomaly_deg": 86.2052,
      "mean_motion_rev_day": 15.2756689
    },
    {
      "epoch": "2026-05-07T14:37:25.406112Z",
      "apogee_km": 483.6557842647353,
      "perigee_km": 482.416656381145,
      "latitude_deg": 5.21616958052615e-05,
      "longitude_deg": -102.77864905333317,
      "height_km": 482.38059032923695,
      "semi_major_axis_km": 6861.173220322939,
      "eccentricity": 9.03e-05,
      "inclination_deg": 42.9985,
      "raan_deg": 342.0303,
      "arg_perigee_deg": 314.1509,
      "mean_anomaly_deg": 45.9269,
      "mean_motion_rev_day": 15.275843
    },
    {
      "epoch": "2026-05-08T20:26:21.925824Z",
      "apogee_km": 483.87034045643577,
      "perigee_km": 482.00687232174005,
      "latitude_deg": -1.9507737600178057e-05,
      "longitude_deg": 161.7430846771004,
      "height_km": 482.8330327811718,
      "semi_major_axis_km": 6861.075606389088,
      "eccentricity": 0.0001358,
      "inclination_deg": 43.0014,
      "raan_deg": 335.0121,
      "arg_perigee_deg": 262.7471,
      "mean_anomaly_deg": 97.3226,
      "mean_motion_rev_day": 15.276169
    },
    {
      "epoch": "2026-05-09T19:58:44.393664Z",
      "apogee_km": 483.8980978165073,
      "perigee_km": 482.2363141578162,
      "latitude_deg": 4.033902225121078e-06,
      "longitude_deg": 162.14685575548998,
      "height_km": 482.82021757822855,
      "semi_major_axis_km": 6861.204205987161,
      "eccentricity": 0.0001211,
      "inclination_deg": 43.0041,
      "raan_deg": 329.4762,
      "arg_perigee_deg": 271.6546,
      "mean_anomaly_deg": 88.4167,
      "mean_motion_rev_day": 15.27573952
    },
    {
      "epoch": "2026-05-09T23:07:03.095328Z",
      "apogee_km": 483.8825930662242,
      "perigee_km": 482.24647094890224,
      "latitude_deg": -1.647112687849795e-06,
      "longitude_deg": 114.20033106566957,
      "height_km": 482.83108811922256,
      "semi_major_axis_km": 6861.201532007563,
      "eccentricity": 0.00011923,
      "inclination_deg": 43.0031,
      "raan_deg": 328.7365,
      "arg_perigee_deg": 270.7227,
      "mean_anomaly_deg": 89.3488,
      "mean_motion_rev_day": 15.27574845
    },
    {
      "epoch": "2026-05-11T19:03:25.881120Z",
      "apogee_km": 483.93757311344143,
      "perigee_km": 482.2058040404454,
      "latitude_deg": -2.5553231030465372e-05,
      "longitude_deg": 162.96132577182826,
      "height_km": 482.69219324843954,
      "semi_major_axis_km": 6861.208688576943,
      "eccentricity": 0.0001262,
      "inclination_deg": 43.0029,
      "raan_deg": 318.397,
      "arg_perigee_deg": 280.407,
      "mean_anomaly_deg": 79.6639,
      "mean_motion_rev_day": 15.27572455
    },
    {
      "epoch": "2026-05-12T20:09:56.206368Z",
      "apogee_km": 483.7974044961511,
      "perigee_km": 482.3304797347273,
      "latitude_deg": -3.550823072000701e-05,
      "longitude_deg": 139.39439404169187,
      "height_km": 482.78015830550703,
      "semi_major_axis_km": 6861.200942115439,
      "eccentricity": 0.0001069,
      "inclination_deg": 43.0012,
      "raan_deg": 312.4876,
      "arg_perigee_deg": 274.7195,
      "mean_anomaly_deg": 85.3534,
      "mean_motion_rev_day": 15.27575042
    }
  ]
}